{"fetched_at":"2026-07-24T07:06:06.293Z","source":"https://celestrak.org/NORAD/elements/gp.php?GROUP=kuiper&FORMAT=JSON","constellation":"kuiper","records":[{"OBJECT_NAME":"KUIPER-00589","OBJECT_ID":"2026-151E","EPOCH":"2026-07-23T20:00:01.999008","CLASSIFICATION_TYPE":"U","MEAN_MOTION":15.31485663,"ECCENTRICITY":0.0005831,"INCLINATION":51.8767,"RA_OF_ASC_NODE":138.6803,"ARG_OF_PERICENTER":171.3562,"MEAN_ANOMALY":152.9447,"EPHEMERIS_TYPE":0,"NORAD_CAT_ID":69767,"ELEMENT_SET_NO":999,"REV_AT_EPOCH":398,"BSTAR":-0.05441,"MEAN_MOTION_DOT":-0.01513888,"MEAN_MOTION_DDOT":0},{"OBJECT_NAME":"KUIPER-00598","OBJECT_ID":"2026-151F","EPOCH":"2026-07-23T16:00:01.998720","CLASSIFICATION_TYPE":"U","MEAN_MOTION":15.34205037,"ECCENTRICITY":0.000877,"INCLINATION":51.8645,"RA_OF_ASC_NODE":139.7586,"ARG_OF_PERICENTER":191.7943,"MEAN_ANOMALY":160.0178,"EPHEMERIS_TYPE":0,"NORAD_CAT_ID":69768,"ELEMENT_SET_NO":999,"REV_AT_EPOCH":386,"BSTAR":0.001781,"MEAN_MOTION_DOT":0.00060024,"MEAN_MOTION_DDOT":0},{"OBJECT_NAME":"KUIPER-00604","OBJECT_ID":"2026-151G","EPOCH":"2026-07-23T02:31:29.053632","CLASSIFICATION_TYPE":"U","MEAN_MOTION":15.38119408,"ECCENTRICITY":0.0002639,"INCLINATION":51.8797,"RA_OF_ASC_NODE":142.0067,"ARG_OF_PERICENTER":125.8861,"MEAN_ANOMALY":234.2372,"EPHEMERIS_TYPE":0,"NORAD_CAT_ID":69769,"ELEMENT_SET_NO":999,"REV_AT_EPOCH":323,"BSTAR":-0.0015640177,"MEAN_MOTION_DOT":-0.00059555,"MEAN_MOTION_DDOT":0},{"OBJECT_NAME":"KUIPER-00609","OBJECT_ID":"2026-151H","EPOCH":"2026-07-23T10:10:58.501344","CLASSIFICATION_TYPE":"U","MEAN_MOTION":15.38809442,"ECCENTRICITY":0.0001112,"INCLINATION":51.8802,"RA_OF_ASC_NODE":140.3956,"ARG_OF_PERICENTER":69.8751,"MEAN_ANOMALY":290.2356,"EPHEMERIS_TYPE":0,"NORAD_CAT_ID":69770,"ELEMENT_SET_NO":999,"REV_AT_EPOCH":328,"BSTAR":0.00070317,"MEAN_MOTION_DOT":0.00027115,"MEAN_MOTION_DDOT":0},{"OBJECT_NAME":"KUIPER-00611","OBJECT_ID":"2026-151J","EPOCH":"2026-07-23T13:21:55.723680","CLASSIFICATION_TYPE":"U","MEAN_MOTION":15.38628893,"ECCENTRICITY":0.0001527,"INCLINATION":51.8815,"RA_OF_ASC_NODE":139.7806,"ARG_OF_PERICENTER":143.5876,"MEAN_ANOMALY":216.5215,"EPHEMERIS_TYPE":0,"NORAD_CAT_ID":69771,"ELEMENT_SET_NO":999,"REV_AT_EPOCH":330,"BSTAR":0.00074925,"MEAN_MOTION_DOT":0.00028753,"MEAN_MOTION_DDOT":0},{"OBJECT_NAME":"KUIPER-00612","OBJECT_ID":"2026-151K","EPOCH":"2026-07-23T19:46:20.233056","CLASSIFICATION_TYPE":"U","MEAN_MOTION":15.38137156,"ECCENTRICITY":0.0004071,"INCLINATION":51.8794,"RA_OF_ASC_NODE":138.5728,"ARG_OF_PERICENTER":143.9984,"MEAN_ANOMALY":216.1278,"EPHEMERIS_TYPE":0,"NORAD_CAT_ID":69772,"ELEMENT_SET_NO":999,"REV_AT_EPOCH":334,"BSTAR":0.0010306,"MEAN_MOTION_DOT":0.00039123,"MEAN_MOTION_DDOT":0},{"OBJECT_NAME":"KUIPER-00614","OBJECT_ID":"2026-151L","EPOCH":"2026-07-23T00:59:34.561536","CLASSIFICATION_TYPE":"U","MEAN_MOTION":15.38242293,"ECCENTRICITY":0.00032226,"INCLINATION":51.8797,"RA_OF_ASC_NODE":142.3282,"ARG_OF_PERICENTER":153.6537,"MEAN_ANOMALY":206.4614,"EPHEMERIS_TYPE":0,"NORAD_CAT_ID":69773,"ELEMENT_SET_NO":999,"REV_AT_EPOCH":322,"BSTAR":0.0007671614,"MEAN_MOTION_DOT":0.00029081,"MEAN_MOTION_DDOT":0},{"OBJECT_NAME":"KUIPER-00615","OBJECT_ID":"2026-151M","EPOCH":"2026-07-23T20:00:01.999008","CLASSIFICATION_TYPE":"U","MEAN_MOTION":15.3461604,"ECCENTRICITY":0.0006594,"INCLINATION":51.8782,"RA_OF_ASC_NODE":138.6968,"ARG_OF_PERICENTER":182.5212,"MEAN_ANOMALY":154.3952,"EPHEMERIS_TYPE":0,"NORAD_CAT_ID":69774,"ELEMENT_SET_NO":999,"REV_AT_EPOCH":217,"BSTAR":-0.024562,"MEAN_MOTION_DOT":-0.00778392,"MEAN_MOTION_DDOT":0},{"OBJECT_NAME":"KUIPER-00616","OBJECT_ID":"2026-151N","EPOCH":"2026-07-23T02:29:37.663296","CLASSIFICATION_TYPE":"U","MEAN_MOTION":15.38499856,"ECCENTRICITY":0.0003438,"INCLINATION":51.8781,"RA_OF_ASC_NODE":142.0022,"ARG_OF_PERICENTER":159.7088,"MEAN_ANOMALY":200.4037,"EPHEMERIS_TYPE":0,"NORAD_CAT_ID":69775,"ELEMENT_SET_NO":999,"REV_AT_EPOCH":323,"BSTAR":0.0008924555,"MEAN_MOTION_DOT":0.00034208,"MEAN_MOTION_DDOT":0},{"OBJECT_NAME":"KUIPER-00617","OBJECT_ID":"2026-151P","EPOCH":"2026-07-23T19:49:12.499968","CLASSIFICATION_TYPE":"U","MEAN_MOTION":15.37911482,"ECCENTRICITY":0.0005351,"INCLINATION":51.8779,"RA_OF_ASC_NODE":138.5825,"ARG_OF_PERICENTER":156.6835,"MEAN_ANOMALY":203.4396,"EPHEMERIS_TYPE":0,"NORAD_CAT_ID":69776,"ELEMENT_SET_NO":999,"REV_AT_EPOCH":334,"BSTAR":0.00086378,"MEAN_MOTION_DOT":0.00032462,"MEAN_MOTION_DDOT":0},{"OBJECT_NAME":"KUIPER-00619","OBJECT_ID":"2026-151Q","EPOCH":"2026-07-23T05:32:18.540096","CLASSIFICATION_TYPE":"U","MEAN_MOTION":15.38714521,"ECCENTRICITY":0.0001352,"INCLINATION":51.8817,"RA_OF_ASC_NODE":141.3479,"ARG_OF_PERICENTER":78.4198,"MEAN_ANOMALY":281.6941,"EPHEMERIS_TYPE":0,"NORAD_CAT_ID":69777,"ELEMENT_SET_NO":999,"REV_AT_EPOCH":325,"BSTAR":0.00072437,"MEAN_MOTION_DOT":0.0002786,"MEAN_MOTION_DDOT":0},{"OBJECT_NAME":"KUIPER-00621","OBJECT_ID":"2026-151R","EPOCH":"2026-07-23T05:37:00.115104","CLASSIFICATION_TYPE":"U","MEAN_MOTION":15.38437028,"ECCENTRICITY":0.0001759,"INCLINATION":51.8794,"RA_OF_ASC_NODE":141.375,"ARG_OF_PERICENTER":129.0977,"MEAN_ANOMALY":231.0167,"EPHEMERIS_TYPE":0,"NORAD_CAT_ID":69778,"ELEMENT_SET_NO":999,"REV_AT_EPOCH":325,"BSTAR":0.00075771,"MEAN_MOTION_DOT":0.000289,"MEAN_MOTION_DDOT":0},{"OBJECT_NAME":"KUIPER-00622","OBJECT_ID":"2026-151S","EPOCH":"2026-07-23T20:00:01.999008","CLASSIFICATION_TYPE":"U","MEAN_MOTION":15.34012453,"ECCENTRICITY":0.0007256,"INCLINATION":51.8741,"RA_OF_ASC_NODE":138.7106,"ARG_OF_PERICENTER":177.3873,"MEAN_ANOMALY":147.0933,"EPHEMERIS_TYPE":0,"NORAD_CAT_ID":69779,"ELEMENT_SET_NO":999,"REV_AT_EPOCH":397,"BSTAR":0.00024975,"MEAN_MOTION_DOT":0.00007979,"MEAN_MOTION_DDOT":0},{"OBJECT_NAME":"KUIPER-00623","OBJECT_ID":"2026-151T","EPOCH":"2026-07-23T19:56:19.971744","CLASSIFICATION_TYPE":"U","MEAN_MOTION":15.37534892,"ECCENTRICITY":0.0004975,"INCLINATION":51.8778,"RA_OF_ASC_NODE":138.6195,"ARG_OF_PERICENTER":158.7184,"MEAN_ANOMALY":201.4011,"EPHEMERIS_TYPE":0,"NORAD_CAT_ID":69780,"ELEMENT_SET_NO":999,"REV_AT_EPOCH":334,"BSTAR":0.00053283,"MEAN_MOTION_DOT":0.00019593,"MEAN_MOTION_DDOT":0},{"OBJECT_NAME":"KUIPER-00626","OBJECT_ID":"2026-151U","EPOCH":"2026-07-23T12:47:25.723104","CLASSIFICATION_TYPE":"U","MEAN_MOTION":15.34582905,"ECCENTRICITY":0.0009957,"INCLINATION":51.8717,"RA_OF_ASC_NODE":140.3591,"ARG_OF_PERICENTER":192.8924,"MEAN_ANOMALY":167.1808,"EPHEMERIS_TYPE":0,"NORAD_CAT_ID":69781,"ELEMENT_SET_NO":999,"REV_AT_EPOCH":329,"BSTAR":0.00056647,"MEAN_MOTION_DOT":0.00018964,"MEAN_MOTION_DDOT":0},{"OBJECT_NAME":"KUIPER-00627","OBJECT_ID":"2026-151V","EPOCH":"2026-07-23T20:40:44.740416","CLASSIFICATION_TYPE":"U","MEAN_MOTION":15.34434956,"ECCENTRICITY":0.0010744,"INCLINATION":51.8694,"RA_OF_ASC_NODE":138.8083,"ARG_OF_PERICENTER":200.6481,"MEAN_ANOMALY":159.4071,"EPHEMERIS_TYPE":0,"NORAD_CAT_ID":69782,"ELEMENT_SET_NO":999,"REV_AT_EPOCH":334,"BSTAR":0.00066109,"MEAN_MOTION_DOT":0.00022104,"MEAN_MOTION_DDOT":0}]}
