KUIPER-00589            
1 69767U 26151E   26204.83335647 -.01513888  00000+0 -54410-1 0  9993
2 69767  51.8767 138.6803 0005831 171.3562 152.9447 15.31485663  3986
KUIPER-00598            
1 69768U 26151F   26204.66668980  .00060024  00000+0  17810-2 0  9994
2 69768  51.8645 139.7586 0008770 191.7943 160.0178 15.34205037  3862
KUIPER-00604            
1 69769U 26151G   26204.10519738 -.00059555  00000+0 -15640-2 0  9998
2 69769  51.8797 142.0067 0002639 125.8861 234.2372 15.38119408  3238
KUIPER-00609            
1 69770U 26151H   26204.42428821  .00027115  00000+0  70317-3 0  9995
2 69770  51.8802 140.3956 0001112  69.8751 290.2356 15.38809442  3288
KUIPER-00611            
1 69771U 26151J   26204.55689495  .00028753  00000+0  74925-3 0  9994
2 69771  51.8815 139.7806 0001527 143.5876 216.5215 15.38628893  3304
KUIPER-00612            
1 69772U 26151K   26204.82384529  .00039123  00000+0  10306-2 0  9990
2 69772  51.8794 138.5728 0004071 143.9984 216.1278 15.38137156  3348
KUIPER-00614            
1 69773U 26151L   26204.04137224  .00029081  00000+0  76716-3 0  9993
2 69773  51.8797 142.3282 0003222 153.6537 206.4614 15.38242293  3221
KUIPER-00615            
1 69774U 26151M   26204.83335647 -.00778392  00000+0 -24562-1 0  9998
2 69774  51.8782 138.6968 0006594 182.5212 154.3952 15.34616040  2171
KUIPER-00616            
1 69775U 26151N   26204.10390814  .00034208  00000+0  89246-3 0  9997
2 69775  51.8781 142.0022 0003438 159.7088 200.4037 15.38499856  3235
KUIPER-00617            
1 69776U 26151P   26204.82583912  .00032462  00000+0  86378-3 0  9993
2 69776  51.8779 138.5825 0005351 156.6835 203.4396 15.37911482  3342
KUIPER-00619            
1 69777U 26151Q   26204.23077014  .00027860  00000+0  72437-3 0  9997
2 69777  51.8817 141.3479 0001352  78.4198 281.6941 15.38714521  3253
KUIPER-00621            
1 69778U 26151R   26204.23402911  .00028900  00000+0  75771-3 0  9996
2 69778  51.8794 141.3750 0001759 129.0977 231.0167 15.38437028  3252
KUIPER-00622            
1 69779U 26151S   26204.83335647  .00007979  00000+0  24975-3 0  9997
2 69779  51.8741 138.7106 0007256 177.3873 147.0933 15.34012453  3972
KUIPER-00623            
1 69780U 26151T   26204.83078671  .00019593  00000+0  53283-3 0  9999
2 69780  51.8778 138.6195 0004975 158.7184 201.4011 15.37534892  3346
KUIPER-00626            
1 69781U 26151U   26204.53293661  .00018964  00000+0  56647-3 0  9993
2 69781  51.8717 140.3591 0009957 192.8924 167.1808 15.34582905  3297
KUIPER-00627            
1 69782U 26151V   26204.86162894  .00022104  00000+0  66109-3 0  9998
2 69782  51.8694 138.8083 0010744 200.6481 159.4071 15.34434956  3346
